NORAD_CAT_ID,OBJECT_NAME,OBJECT_TYPE,EPOCH,MEAN_MOTION,ECCENTRICITY,INCLINATION,RA_OF_ASC_NODE,ARG_OF_PERICENTER,MEAN_ANOMALY,BSTAR,MEAN_MOTION_DOT,MEAN_MOTION_DDOT,TLE_LINE0,TLE_LINE1,TLE_LINE2,SEMIMAJOR_AXIS,PERIOD,APOGEE,PERIGEE,DECAYED
49172.0,STARLINK-3091,PAYLOAD,2023-08-26 20:10:24,14.98330525,0.0002973,69.9992,88.8455,269.2904,90.7914,-1.8906e-06,-1.16e-06,0.0,0 STARLINK-3091,1 49172U 21082AU  23238.84056403 -.00000116  00000-0 -18906-5 0  9993,2 49172  69.9992  88.8455 0002973 269.2904  90.7914 14.98330525107783,6950.191,96.107,574.123,569.99,0.0
49172.0,STARLINK-3091,PAYLOAD,2023-08-26 23:22:40,14.98332228,0.0002879,69.9992,88.5087,266.7223,93.3607,3.1642e-05,2.85e-06,0.0,0 STARLINK-3091,1 49172U 21082AU  23238.97408181  .00000285  00000-0  31642-4 0  9997,2 49172  69.9992  88.5087 0002879 266.7223  93.3607 14.98332228107805,6950.186,96.107,574.052,570.05,0.0
49172.0,STARLINK-3091,PAYLOAD,2023-08-27 20:12:25,14.98328997,0.0002764,69.9996,86.3211,262.3744,97.7101,7.5511e-06,-3e-08,0.0,0 STARLINK-3091,1 49172U 21082AU  23239.84196398 -.00000003  00000-0  75511-5 0  9991,2 49172  69.9996  86.3211 0002764 262.3744  97.7101 14.98328997107936,6950.196,96.107,573.982,570.14,0.0
49172.0,STARLINK-3091,PAYLOAD,2023-08-27 23:24:41,14.98324793,0.000292,69.9994,85.9837,267.7843,92.2982,6.6985e-05,7.06e-06,0.0,0 STARLINK-3091,1 49172U 21082AU  23239.97548541  .00000706  00000-0  66985-4 0  9999,2 49172  69.9994  85.9837 0002920 267.7843  92.2982 14.98324793107955,6950.209,96.107,574.103,570.045,0.0
49172.0,STARLINK-3091,PAYLOAD,2023-08-28 20:14:26,14.98331089,0.0003011,69.9991,83.7953,270.0364,90.045,1.4425e-05,7.9e-07,0.0,0 STARLINK-3091,1 49172U 21082AU  23240.84336258  .00000079  00000-0  14425-4 0  9992,2 49172  69.9991  83.7953 0003011 270.0364  90.0450 14.98331089108081,6950.19,96.107,574.147,569.962,0.0
49172.0,STARLINK-3091,PAYLOAD,2023-08-29 01:02:50,14.98332718,0.0003029,69.9991,83.2903,270.1593,89.9218,2.9705e-05,2.61e-06,0.0,0 STARLINK-3091,1 49172U 21082AU  23241.04364099  .00000261  00000-0  29705-4 0  9999,2 49172  69.9991  83.2903 0003029 270.1593  89.9218 14.98332718108118,6950.184,96.107,574.155,569.944,0.0
49172.0,STARLINK-3091,PAYLOAD,2023-08-29 21:52:35,14.98330939,0.0003048,69.9993,81.1021,270.4396,89.6414,2.9509e-05,2.59e-06,0.0,0 STARLINK-3091,1 49172U 21082AU  23241.91152179  .00000259  00000-0  29509-4 0  9998,2 49172  69.9993  81.1021 0003048 270.4396  89.6414 14.98330939108245,6950.19,96.107,574.173,569.937,0.0
49172.0,STARLINK-3091,PAYLOAD,2023-08-30 17:06:12,14.98331974,0.000305,69.9994,79.0822,270.5374,89.5435,4.5254e-05,4.47e-06,0.0,0 STARLINK-3091,1 49172U 21082AU  23242.71263981  .00000447  00000-0  45254-4 0  9995,2 49172  69.9994  79.0822 0003050 270.5374  89.5435 14.98331974108366,6950.187,96.107,574.172,569.932,0.0
49172.0,STARLINK-3091,PAYLOAD,2023-08-30 20:18:28,14.98333438,0.0003058,69.9994,78.7455,270.7,89.3809,5.5297e-05,5.67e-06,0.0,0 STARLINK-3091,1 49172U 21082AU  23242.84615838  .00000567  00000-0  55297-4 0  9992,2 49172  69.9994  78.7455 0003058 270.7000  89.3809 14.98333438108382,6950.182,96.107,574.173,569.922,0.0
49172.0,STARLINK-3091,PAYLOAD,2023-08-31 12:19:49,14.98328069,0.0002954,69.9997,77.0624,272.3591,87.7229,-1.8887e-05,-3.18e-06,0.0,0 STARLINK-3091,1 49172U 21082AU  23243.51376327 -.00000318  00000-0 -18887-4 0  9994,2 49172  69.9997  77.0624 0002954 272.3591  87.7229 14.98328069108485,6950.199,96.107,574.117,570.011,0.0
49172.0,STARLINK-3091,PAYLOAD,2023-09-01 12:21:49,14.98333199,0.0002937,69.9995,74.5375,269.737,90.3453,8.258e-06,6e-08,0.0,0 STARLINK-3091,1 49172U 21082AU  23244.51515932  .00000006  00000-0  82580-5 0  9996,2 49172  69.9995  74.5375 0002937 269.7370  90.3453 14.98333199108630,6950.183,96.107,574.089,570.007,0.0
49172.0,STARLINK-3091,PAYLOAD,2023-09-01 18:46:21,14.9833465,0.0002932,69.9996,73.8643,269.5139,90.5684,2.5374e-05,2.1e-06,0.0,0 STARLINK-3091,1 49172U 21082AU  23244.78219730  .00000210  00000-0  25374-4 0  9996,2 49172  69.9996  73.8643 0002932 269.5139  90.5684 14.98334650108672,6950.179,96.107,574.081,570.006,0.0
49172.0,STARLINK-3091,PAYLOAD,2023-09-02 05:59:18,14.9832977,0.0002909,69.9994,72.6857,270.2144,89.8682,8.6788e-06,1.1e-07,0.0,0 STARLINK-3091,1 49172U 21082AU  23245.24952007  .00000011  00000-0  86788-5 0  9995,2 49172  69.9994  72.6857 0002909 270.2144  89.8682 14.98329770108747,6950.194,96.107,574.08,570.037,0.0
49172.0,STARLINK-3091,PAYLOAD,2023-09-02 18:48:23,14.98326719,0.0002965,69.9995,71.339,270.42,89.6619,1.3531e-05,6.8e-07,0.0,0 STARLINK-3091,1 49172U 21082AU  23245.78360258  .00000068  00000-0  13531-4 0  9992,2 49172  69.9995  71.3390 0002965 270.4200  89.6619 14.98326719108820,6950.203,96.107,574.129,570.007,0.0
49172.0,STARLINK-3091,PAYLOAD,2023-09-03 12:25:51,14.98332336,0.0002974,69.9996,69.4874,270.9104,89.1715,2.0731e-05,1.54e-06,0.0,0 STARLINK-3091,1 49172U 21082AU  23246.51795906  .00000154  00000-0  20731-4 0  9992,2 49172  69.9996  69.4874 0002974 270.9104  89.1715 14.98332336108930,6950.186,96.107,574.118,569.984,0.0
49172.0,STARLINK-3091,PAYLOAD,2023-09-03 18:50:23,14.98334141,0.0002994,69.9996,68.8139,270.7371,89.3445,8.0375e-06,3e-08,0.0,0 STARLINK-3091,1 49172U 21082AU  23246.78499772  .00000003  00000-0  80375-5 0  9997,2 49172  69.9996  68.8139 0002994 270.7371  89.3445 14.98334141108975,6950.18,96.107,574.126,569.964,0.0
49172.0,STARLINK-3091,PAYLOAD,2023-09-04 06:03:20,14.98328992,0.0003009,70.0001,67.6356,271.4085,88.6729,3.1767e-05,2.86e-06,0.0,0 STARLINK-3091,1 49172U 21082AU  23247.25231968  .00000286  00000-0  31767-4 0  9994,2 49172  70.0001  67.6356 0003009 271.4085  88.6729 14.98328992109044,6950.196,96.107,574.152,569.97,0.0
49172.0,STARLINK-3091,PAYLOAD,2023-09-04 18:52:25,14.98324977,0.0003025,70.0002,66.289,271.5109,88.5704,5.5192e-05,5.66e-06,0.0,0 STARLINK-3091,1 49172U 21082AU  23247.78640214  .00000566  00000-0  55192-4 0  9999,2 49172  70.0002  66.2890 0003025 271.5109  88.5704 14.98324977109129,6950.208,96.107,574.176,569.971,0.0
49172.0,STARLINK-3091,PAYLOAD,2023-09-04 22:04:41,14.98327845,0.0003007,70.0,65.9523,270.8549,89.2266,1.6299e-05,1.01e-06,0.0,0 STARLINK-3091,1 49172U 21082AU  23247.91992158  .00000101  00000-0  16299-4 0  9991,2 49172  70.0000  65.9523 0003007 270.8549  89.2266 14.98327845109146,6950.2,96.107,574.154,569.975,0.0
49172.0,STARLINK-3091,PAYLOAD,2023-09-05 18:54:25,14.98332959,0.0003017,70.0005,63.7642,270.9771,89.1043,2.4481e-05,1.99e-06,0.0,0 STARLINK-3091,1 49172U 21082AU  23248.78779773  .00000199  00000-0  24481-4 0  9992,2 49172  70.0005  63.7642 0003017 270.9771  89.1043 14.98332959109276,6950.184,96.107,574.146,569.952,0.0
49172.0,STARLINK-3091,PAYLOAD,2023-09-06 10:55:46,14.98329649,0.0003045,70.0005,62.081,270.6024,89.4786,3.5537e-05,3.31e-06,0.0,0 STARLINK-3091,1 49172U 21082AU  23249.45539887  .00000331  00000-0  35537-4 0  9999,2 49172  70.0005  62.0810 0003045 270.6024  89.4786 14.98329649109374,6950.194,96.107,574.175,569.943,0.0
49172.0,STARLINK-3091,PAYLOAD,2023-09-06 22:08:42,14.98332318,0.0002953,70.001,60.9038,266.3163,93.7658,7.6328e-05,8.18e-06,0.0,0 STARLINK-3091,1 49172U 21082AU  23249.92271652  .00000818  00000-0  76328-4 0  9997,2 49172  70.0010  60.9038 0002953 266.3163  93.7658 14.98332318109443,6950.186,96.107,574.103,569.998,0.0
49172.0,STARLINK-3091,PAYLOAD,2023-09-07 10:57:47,14.98340001,0.0002902,70.0021,59.556,265.3407,94.7421,-0.00030585,-3.741e-05,0.0,0 STARLINK-3091,1 49172U 21082AU  23250.45680229 -.00003741  00000-0 -30585-3 0  9995,2 49172  70.0021  59.5560 0002902 265.3407  94.7421 14.98340001109529,6950.162,96.106,574.044,570.01,0.0
49172.0,STARLINK-3091,PAYLOAD,2023-09-07 22:10:49,14.98269214,0.0002287,70.0022,58.378,257.7781,102.3122,-0.0010678,-0.0001279,0.0,0 STARLINK-3091,1 49172U 21082AU  23250.92417885 -.00012790  00000-0 -10678-2 0  9997,2 49172  70.0022  58.3780 0002287 257.7781 102.3122 14.98269214109594,6950.381,96.111,573.835,570.656,0.0
49172.0,STARLINK-3091,PAYLOAD,2023-09-08 09:23:40,14.98331137,0.0002922,69.9987,57.199,270.223,89.8594,6.5871e-06,-1.4e-07,0.0,0 STARLINK-3091,1 49172U 21082AU  23251.39143717 -.00000014  00000-0  65871-5 0  9992,2 49172  69.9987  57.1990 0002922 270.2230  89.8594 14.98331137109660,6950.189,96.107,574.085,570.024,0.0
49172.0,STARLINK-3091,PAYLOAD,2023-09-08 14:12:04,14.98326893,0.000318,69.9996,56.693,270.1946,89.8848,5.0967e-05,5.15e-06,0.0,0 STARLINK-3091,1 49172U 21082AU  23251.59171815  .00000515  00000-0  50967-4 0  9998,2 49172  69.9996  56.6930 0003180 270.1946  89.8848 14.98326893109696,6950.202,96.107,574.278,569.857,0.0
49172.0,STARLINK-3091,PAYLOAD,2023-09-08 20:36:36,14.98333131,0.0003047,70.0003,56.0205,270.0443,90.0367,2.7213e-05,2.32e-06,0.0,0 STARLINK-3091,1 49172U 21082AU  23251.85875495  .00000232  00000-0  27213-4 0  9996,2 49172  70.0003  56.0205 0003047 270.0443  90.0367 14.98333131109738,6950.183,96.107,574.166,569.93,0.0
49172.0,STARLINK-3091,PAYLOAD,2023-09-09 11:01:49,14.98328675,0.0003135,70.0009,54.5052,268.8117,91.2683,6.0646e-05,6.31e-06,0.0,0 STARLINK-3091,1 49172U 21082AU  23252.45959579  .00000631  00000-0  60646-4 0  9999,2 49172  70.0009  54.5052 0003135 268.8117  91.2683 14.98328675109829,6950.197,96.107,574.241,569.883,0.0
49172.0,STARLINK-3091,PAYLOAD,2023-09-09 14:14:05,14.98331365,0.0002933,70.0007,54.1689,270.0504,90.0319,2.8276e-05,2.44e-06,0.0,0 STARLINK-3091,1 49172U 21082AU  23252.59311561  .00000244  00000-0  28276-4 0  9990,2 49172  70.0007  54.1689 0002933 270.0504  90.0319 14.98331365109844,6950.189,96.107,574.092,570.015,0.0
49172.0,STARLINK-3091,PAYLOAD,2023-09-10 11:03:50,14.98326562,0.0003196,70.001,51.9807,269.0584,91.0209,8.5914e-05,9.32e-06,0.0,0 STARLINK-3091,1 49172U 21082AU  23253.46099580  .00000932  00000-0  85914-4 0  9997,2 49172  70.0010  51.9807 0003196 269.0584  91.0209 14.98326562109979,6950.204,96.107,574.29,569.847,0.0
